{"type":"FeatureCollection","features":[{"type":"Feature","properties":{"name":"Tower Bridge"},"geometry":{"type":"Point","coordinates":[-0.0754,51.5055]}},{"type":"Feature","properties":{"name":"Elizabeth Tower (Big Ben)"},"geometry":{"type":"Point","coordinates":[-0.1246,51.5007]}},{"type":"Feature","properties":{"name":"Victoria Tower"},"geometry":{"type":"Point","coordinates":[-0.1253,51.4981]}},{"type":"Feature","properties":{"name":"Westminster Abbey"},"geometry":{"type":"Point","coordinates":[-0.1273,51.4994]}},{"type":"Feature","properties":{"name":"Portcullis House"},"geometry":{"type":"Point","coordinates":[-0.125,51.5013]}},{"type":"Feature","properties":{"name":"The Shard"},"geometry":{"type":"Point","coordinates":[-0.0865,51.5045]}},{"type":"Feature","properties":{"name":"London Eye"},"geometry":{"type":"Point","coordinates":[-0.1196,51.5033]}},{"type":"Feature","properties":{"name":"St Paul's Cathedral"},"geometry":{"type":"Point","coordinates":[-0.0984,51.5138]}},{"type":"Feature","properties":{"name":"Tower of London"},"geometry":{"type":"Point","coordinates":[-0.0759,51.5081]}},{"type":"Feature","properties":{"name":"HMS Belfast"},"geometry":{"type":"Point","coordinates":[-0.0813,51.5066]}},{"type":"Feature","properties":{"name":"City Hall"},"geometry":{"type":"Point","coordinates":[-0.0786,51.5049]}},{"type":"Feature","properties":{"name":"One Canada Square"},"geometry":{"type":"Point","coordinates":[-0.0195,51.5049]}},{"type":"Feature","properties":{"name":"BT Tower"},"geometry":{"type":"Point","coordinates":[-0.1389,51.5215]}},{"type":"Feature","properties":{"name":"Battersea Power Station"},"geometry":{"type":"Point","coordinates":[-0.1445,51.4816]}},{"type":"Feature","properties":{"name":"St George Wharf Tower"},"geometry":{"type":"Point","coordinates":[-0.126,51.4855]}},{"type":"Feature","properties":{"name":"MI6 Building"},"geometry":{"type":"Point","coordinates":[-0.1244,51.4872]}},{"type":"Feature","properties":{"name":"London Bridge"},"geometry":{"type":"Point","coordinates":[-0.0877,51.5079]}},{"type":"Feature","properties":{"name":"Southwark Bridge"},"geometry":{"type":"Point","coordinates":[-0.0944,51.5087]}},{"type":"Feature","properties":{"name":"Millennium Bridge"},"geometry":{"type":"Point","coordinates":[-0.0985,51.5095]}},{"type":"Feature","properties":{"name":"Blackfriars Bridge"},"geometry":{"type":"Point","coordinates":[-0.1045,51.5098]}},{"type":"Feature","properties":{"name":"Waterloo Bridge"},"geometry":{"type":"Point","coordinates":[-0.1168,51.5085]}},{"type":"Feature","properties":{"name":"Hungerford Bridge"},"geometry":{"type":"Point","coordinates":[-0.1203,51.5066]}},{"type":"Feature","properties":{"name":"Westminster Bridge"},"geometry":{"type":"Point","coordinates":[-0.1222,51.5008]}},{"type":"Feature","properties":{"name":"Lambeth Bridge"},"geometry":{"type":"Point","coordinates":[-0.1243,51.4945]}},{"type":"Feature","properties":{"name":"Vauxhall Bridge"},"geometry":{"type":"Point","coordinates":[-0.1275,51.4875]}},{"type":"Feature","properties":{"name":"Chelsea Bridge"},"geometry":{"type":"Point","coordinates":[-0.15,51.4845]}},{"type":"Feature","properties":{"name":"Albert Bridge"},"geometry":{"type":"Point","coordinates":[-0.1665,51.4822]}},{"type":"Feature","properties":{"name":"Cannon Street Railway Bridge"},"geometry":{"type":"Point","coordinates":[-0.0916,51.5093]}}]}