{"type":"FeatureCollection","features":[{"type":"Feature","properties":{"width":2400,"depth":900,"rotation":0,"shape":"ellipse"},"geometry":{"type":"Point","coordinates":[-0.1657,51.5073]}},{"type":"Feature","properties":{"width":620,"depth":420,"rotation":0.6,"shape":"ellipse"},"geometry":{"type":"Point","coordinates":[-0.142,51.504]}},{"type":"Feature","properties":{"width":900,"depth":260,"rotation":0.05,"shape":"ellipse"},"geometry":{"type":"Point","coordinates":[-0.134,51.5025]}},{"type":"Feature","properties":{"width":900,"depth":700,"rotation":0.2,"shape":"ellipse"},"geometry":{"type":"Point","coordinates":[-0.1567,51.4791]}},{"type":"Feature","properties":{"width":320,"depth":70,"rotation":1.4,"shape":"ellipse"},"geometry":{"type":"Point","coordinates":[-0.1252,51.4965]}},{"type":"Feature","properties":{"width":1400,"depth":1200,"rotation":0,"shape":"ellipse"},"geometry":{"type":"Point","coordinates":[-0.157,51.5313]}},{"type":"Feature","properties":{"width":230,"depth":230,"rotation":0.2,"shape":"ellipse"},"geometry":{"type":"Point","coordinates":[-0.0762,51.5082]}},{"type":"Feature","properties":{"width":700,"depth":500,"rotation":0,"shape":"ellipse"},"geometry":{"type":"Point","coordinates":[-0.062,51.493]}},{"type":"Feature","properties":{"width":500,"depth":350,"rotation":0.3,"shape":"ellipse"},"geometry":{"type":"Point","coordinates":[-0.118,51.482]}},{"type":"Feature","properties":{"width":300,"depth":250,"rotation":0,"shape":"ellipse"},"geometry":{"type":"Point","coordinates":[-0.11,51.517]}}]}