{"type":"FeatureCollection","features":[{"type":"Feature","properties":{"name":"River Thames (centreline, Battersea to Greenwich reach)","halfWidth":122},"geometry":{"type":"LineString","coordinates":[[-0.029,51.495],[-0.03,51.5035],[-0.038,51.5078],[-0.052,51.5068],[-0.064,51.5042],[-0.073,51.5052],[-0.076,51.5056],[-0.082,51.507],[-0.0877,51.5079],[-0.0944,51.5087],[-0.099,51.5094],[-0.1045,51.5098],[-0.111,51.5097],[-0.1165,51.5086],[-0.12,51.5066],[-0.1215,51.5036],[-0.1222,51.5008],[-0.1232,51.4975],[-0.1243,51.4945],[-0.1258,51.4905],[-0.1275,51.4875],[-0.133,51.4852],[-0.142,51.484],[-0.15,51.4845],[-0.16,51.4832],[-0.168,51.4815],[-0.174,51.479],[-0.179,51.474],[-0.183,51.468]]}}]}